{
  "type": "FeatureCollection",
  "features": [
    {
      "type": "Feature",
      "properties": {
        "norad_id": 30182,
        "name": "FENGYUN 1C DEB",
        "group": "fengyun-1c-debris",
        "lat": -65.12414713019864,
        "lon": -156.873339910881,
        "alt_km": 940.6441169719283,
        "timestamp": "2025-12-18T08:58:43.686119+00:00",
        "meta_object_name": "FENGYUN 1C DEB",
        "meta_object_id": "1999-025UP",
        "meta_epoch": "2025-12-17T15:23:09.337920",
        "meta_mean_motion": 13.96459228,
        "meta_eccentricity": 0.00747857,
        "meta_inclination": 99.0653,
        "meta_ra_of_asc_node": 42.5451,
        "meta_arg_of_pericenter": 9.2397,
        "meta_mean_anomaly": 155.0382,
        "meta_ephemeris_type": 0,
        "meta_classification_type": "U",
        "meta_norad_cat_id": 30182,
        "meta_element_set_no": 999,
        "meta_rev_at_epoch": 96376,
        "meta_bstar": 2.417402e-05,
        "meta_mean_motion_dot": -1e-07,
        "meta_mean_motion_ddot": 0,
        "tle_line1": "1 30182U 99025UP  25351.64108030 -.00000010  00000+0  24174-4 0  9990",
        "tle_line2": "2 30182  99.0653  42.5451 0074785   9.2397 155.0382 13.96459228963764"
      },
      "geometry": {
        "type": "Point",
        "coordinates": [
          -156.873339910881,
          -65.12414713019864
        ]
      }
    },
    {
      "type": "Feature",
      "properties": {
        "norad_id": 30183,
        "name": "FENGYUN 1C DEB",
        "group": "fengyun-1c-debris",
        "lat": 18.098841159357512,
        "lon": 31.607960967060574,
        "alt_km": 865.3072495040979,
        "timestamp": "2025-12-18T08:58:43.686129+00:00",
        "meta_object_name": "FENGYUN 1C DEB",
        "meta_object_id": "1999-025UQ",
        "meta_epoch": "2025-12-17T16:30:20.907936",
        "meta_mean_motion": 14.12671717,
        "meta_eccentricity": 0.00261418,
        "meta_inclination": 98.7882,
        "meta_ra_of_asc_node": 33.8327,
        "meta_arg_of_pericenter": 238.8196,
        "meta_mean_anomaly": 250.7307,
        "meta_ephemeris_type": 0,
        "meta_classification_type": "U",
        "meta_norad_cat_id": 30183,
        "meta_element_set_no": 999,
        "meta_rev_at_epoch": 97213,
        "meta_bstar": 0.00045437991,
        "meta_mean_motion_dot": 8.01e-06,
        "meta_mean_motion_ddot": 0,
        "tle_line1": "1 30183U 99025UQ  25351.68774199  .00000801  00000+0  45438-3 0  9992",
        "tle_line2": "2 30183  98.7882  33.8327 0026141 238.8196 250.7307 14.12671717972139"
      },
      "geometry": {
        "type": "Point",
        "coordinates": [
          31.607960967060574,
          18.098841159357512
        ]
      }
    },
    {
      "type": "Feature",
      "properties": {
        "norad_id": 30191,
        "name": "FENGYUN 1C DEB",
        "group": "fengyun-1c-debris",
        "lat": -5.663837962192401,
        "lon": -116.8217457935932,
        "alt_km": 604.439143999215,
        "timestamp": "2025-12-18T08:58:43.686139+00:00",
        "meta_object_name": "FENGYUN 1C DEB",
        "meta_object_id": "1999-025UY",
        "meta_epoch": "2025-12-17T18:04:01.460352",
        "meta_mean_motion": 14.78102537,
        "meta_eccentricity": 0.00971356,
        "meta_inclination": 98.7762,
        "meta_ra_of_asc_node": 63.3796,
        "meta_arg_of_pericenter": 247.5783,
        "meta_mean_anomaly": 234.7832,
        "meta_ephemeris_type": 0,
        "meta_classification_type": "U",
        "meta_norad_cat_id": 30191,
        "meta_element_set_no": 999,
        "meta_rev_at_epoch": 349,
        "meta_bstar": 0.00095150164,
        "meta_mean_motion_dot": 7.384e-05,
        "meta_mean_motion_ddot": 0,
        "tle_line1": "1 30191U 99025UY  25351.75279468  .00007384  00000+0  95150-3 0  9997",
        "tle_line2": "2 30191  98.7762  63.3796 0097135 247.5783 234.7832 14.78102537  3493"
      },
      "geometry": {
        "type": "Point",
        "coordinates": [
          -116.8217457935932,
          -5.663837962192401
        ]
      }
    },
    {
      "type": "Feature",
      "properties": {
        "norad_id": 30193,
        "name": "FENGYUN 1C DEB",
        "group": "fengyun-1c-debris",
        "lat": 33.99471063134918,
        "lon": -105.16914146739084,
        "alt_km": 714.3365272907868,
        "timestamp": "2025-12-18T08:58:43.686149+00:00",
        "meta_object_name": "FENGYUN 1C DEB",
        "meta_object_id": "1999-025VA",
        "meta_epoch": "2025-12-17T16:31:27.414336",
        "meta_mean_motion": 14.49145926,
        "meta_eccentricity": 0.01074148,
        "meta_inclination": 98.7567,
        "meta_ra_of_asc_node": 260.0859,
        "meta_arg_of_pericenter": 118.2557,
        "meta_mean_anomaly": 302.8203,
        "meta_ephemeris_type": 0,
        "meta_classification_type": "U",
        "meta_norad_cat_id": 30193,
        "meta_element_set_no": 999,
        "meta_rev_at_epoch": 99238,
        "meta_bstar": 0.00049650636,
        "meta_mean_motion_dot": 1.981e-05,
        "meta_mean_motion_ddot": 0,
        "tle_line1": "1 30193U 99025VA  25351.68851174  .00001981  00000+0  49651-3 0  9993",
        "tle_line2": "2 30193  98.7567 260.0859 0107414 118.2557 302.8203 14.49145926992380"
      },
      "geometry": {
        "type": "Point",
        "coordinates": [
          -105.16914146739084,
          33.99471063134918
        ]
      }
    },
    {
      "type": "Feature",
      "properties": {
        "norad_id": 30196,
        "name": "FENGYUN 1C DEB",
        "group": "fengyun-1c-debris",
        "lat": 69.88870559725508,
        "lon": 60.21180958458792,
        "alt_km": 742.1926684614882,
        "timestamp": "2025-12-18T08:58:43.686159+00:00",
        "meta_object_name": "FENGYUN 1C DEB",
        "meta_object_id": "1999-025VD",
        "meta_epoch": "2025-12-17T19:44:00.105216",
        "meta_mean_motion": 14.25849187,
        "meta_eccentricity": 0.00867746,
        "meta_inclination": 98.6402,
        "meta_ra_of_asc_node": 84.2025,
        "meta_arg_of_pericenter": 48.509,
        "meta_mean_anomaly": 71.5889,
        "meta_ephemeris_type": 0,
        "meta_classification_type": "U",
        "meta_norad_cat_id": 30196,
        "meta_element_set_no": 999,
        "meta_rev_at_epoch": 98437,
        "meta_bstar": 4.3104776e-05,
        "meta_mean_motion_dot": 6.3e-07,
        "meta_mean_motion_ddot": 0,
        "tle_line1": "1 30196U 99025VD  25351.82222344  .00000063  00000+0  43105-4 0  9992",
        "tle_line2": "2 30196  98.6402  84.2025 0086774  48.5090  71.5889 14.25849187984377"
      },
      "geometry": {
        "type": "Point",
        "coordinates": [
          60.21180958458792,
          69.88870559725508
        ]
      }
    },
    {
      "type": "Feature",
      "properties": {
        "norad_id": 30197,
        "name": "FENGYUN 1C DEB",
        "group": "fengyun-1c-debris",
        "lat": 33.68312776963461,
        "lon": 103.97124398414772,
        "alt_km": 740.295074424942,
        "timestamp": "2025-12-18T08:58:43.686169+00:00",
        "meta_object_name": "FENGYUN 1C DEB",
        "meta_object_id": "1999-025VE",
        "meta_epoch": "2025-12-17T19:14:16.837728",
        "meta_mean_motion": 14.37214831,
        "meta_eccentricity": 0.00570755,
        "meta_inclination": 98.9391,
        "meta_ra_of_asc_node": 277.355,
        "meta_arg_of_pericenter": 199.4521,
        "meta_mean_anomaly": 226.2272,
        "meta_ephemeris_type": 0,
        "meta_classification_type": "U",
        "meta_norad_cat_id": 30197,
        "meta_element_set_no": 999,
        "meta_rev_at_epoch": 98559,
        "meta_bstar": 0.00054673622,
        "meta_mean_motion_dot": 1.611e-05,
        "meta_mean_motion_ddot": 0,
        "tle_line1": "1 30197U 99025VE  25351.80158377  .00001611  00000+0  54674-3 0  9997",
        "tle_line2": "2 30197  98.9391 277.3550 0057075 199.4521 226.2272 14.37214831985598"
      },
      "geometry": {
        "type": "Point",
        "coordinates": [
          103.97124398414772,
          33.68312776963461
        ]
      }
    },
    {
      "type": "Feature",
      "properties": {
        "norad_id": 30198,
        "name": "FENGYUN 1C DEB",
        "group": "fengyun-1c-debris",
        "lat": 5.931421523436986,
        "lon": 122.55103941344953,
        "alt_km": 802.0527166690217,
        "timestamp": "2025-12-18T08:58:43.686179+00:00",
        "meta_object_name": "FENGYUN 1C DEB",
        "meta_object_id": "1999-025VF",
        "meta_epoch": "2025-12-17T20:26:50.748864",
        "meta_mean_motion": 14.50433177,
        "meta_eccentricity": 0.01069447,
        "meta_inclination": 98.4478,
        "meta_ra_of_asc_node": 122.9119,
        "meta_arg_of_pericenter": 182.7954,
        "meta_mean_anomaly": 338.6228,
        "meta_ephemeris_type": 0,
        "meta_classification_type": "U",
        "meta_norad_cat_id": 30198,
        "meta_element_set_no": 999,
        "meta_rev_at_epoch": 98581,
        "meta_bstar": 0.0014949222,
        "meta_mean_motion_dot": 6.243e-05,
        "meta_mean_motion_ddot": 0,
        "tle_line1": "1 30198U 99025VF  25351.85197626  .00006243  00000+0  14949-2 0  9999",
        "tle_line2": "2 30198  98.4478 122.9119 0106944 182.7954 338.6228 14.50433177985816"
      },
      "geometry": {
        "type": "Point",
        "coordinates": [
          122.55103941344953,
          5.931421523436986
        ]
      }
    }
  ]
}